CCSDS_OEM_VERS = 2.0
CREATION_DATE  = 2026-04-20T16:44:21.048
ORIGINATOR     = NASA/JSC/FOD/TOPO

META_START
OBJECT_NAME          = ISS
OBJECT_ID            = 1998-067-A
CENTER_NAME          = Earth
REF_FRAME            = EME2000
TIME_SYSTEM          = UTC
START_TIME           = 2026-04-20T12:00:00.000
USEABLE_START_TIME   = 2026-04-20T12:00:00.000
USEABLE_STOP_TIME    = 2026-05-05T12:00:00.000
STOP_TIME            = 2026-05-05T12:00:00.000
META_STOP

COMMENT Source: This file was produced by the TOPO office within FOD at JSC.
COMMENT Units are in kg and m^2
COMMENT MASS=468332.70
COMMENT DRAG_AREA=1791.80
COMMENT DRAG_COEFF=1.10
COMMENT SOLAR_RAD_AREA=0.00
COMMENT SOLAR_RAD_COEFF=0.00
COMMENT Orbits start at the ascending node epoch
COMMENT ISS first asc. node: EPOCH = 2026-04-20T12:32:07.813 $ ORBIT = 281 $ LAN(DEG) = -171.14523
COMMENT ISS last asc. node : EPOCH = 2026-05-05T11:45:57.862 $ ORBIT = 513 $ LAN(DEG) = 111.59803
COMMENT Begin sequence of events
COMMENT TRAJECTORY EVENT SUMMARY:
COMMENT 
COMMENT |       EVENT        |       TIG        | ORB |   DV    |   HA    |   HP    |
COMMENT |                    |       GMT        |     |   M/S   |   KM    |   KM    |
COMMENT |                    |                  |     |  (F/S)  |  (NM)   |  (NM)   |
COMMENT =============================================================================
COMMENT  93P Undock            110:22:08:30.000             0.0     425.2     414.3
COMMENT                                                    (0.0)   (229.6)   (223.7)
COMMENT 
COMMENT  95P Dock              118:00:01:16.000             0.0     426.9     412.0
COMMENT                                                    (0.0)   (230.5)   (222.4)
COMMENT 
COMMENT =============================================================================
COMMENT End sequence of events
2026-04-26T08:03:00.000 -4602.694191911140 -3911.380935242000 3104.572877170590 5.38112007770897 -2.45341849546823 4.87798150239840
2026-04-26T08:07:00.000 -3159.333578972690 -4350.608802856950 4147.633660704450 6.57318860168365 -1.18461273136029 3.76106105050518
2026-04-26T08:11:00.000 -1486.005378767380 -4473.178776865040 4887.960157569130 7.28593668617751 0.16921052849411 2.37076684799693
2026-04-26T08:15:00.000 295.396820743359 -4270.475863540310 5271.846950627100 7.46848851592037 1.50949098138872 0.80893198098304
2026-04-26T08:19:00.000 2055.358337729400 -3757.485069538510 5271.606089509850 7.10845779193346 2.73926743679031 -0.81079396903061
2026-04-26T08:23:00.000 3666.070275332260 -2971.612622627520 4887.443762643340 6.23234611516357 3.76971241696531 -2.37094037704179
2026-04-26T08:27:00.000 5010.599195661420 -1969.979588122780 4147.407992089690 4.90376115559351 4.52636253401590 -3.75834220998351
2026-04-26T08:31:00.000 5991.308593117530 -825.311366578359 3105.376912202810 3.21897325677278 4.95440388082782 -4.87218904374077
2026-04-26T08:35:00.000 6536.950557896940 379.283959478259 1837.204969186990 1.30033308178322 5.02269761624457 -5.63129963390806
2026-04-26T08:39:00.000 6607.923262014620 1556.337331497800 435.246187013872 -0.71238476389037 4.72631576597739 -5.98026290773440
2026-04-26T08:43:00.000 6199.234521975970 2620.421869067280 -998.406214790560 -2.67237815921153 4.08710990225224 -5.89386765779699
2026-04-26T08:47:00.000 5340.855215265890 3494.429261310160 -2359.450246680150 -4.43696266186585 3.15210944042521 -5.37902301825936
2026-04-26T08:51:00.000 4095.413206225310 4115.203156910150 -3549.046805799030 -5.87835731720928 1.98976224390239 -4.47399831044402
2026-04-26T08:55:00.000 2553.473601465210 4438.064462722540 -4481.007631605790 -6.89293189761827 0.68460915819050 -3.24522337630873
2026-04-26T08:59:00.000 826.835418323615 4439.923541718630 -5087.955947549960 -7.40833965937926 -0.66909367027006 -1.78201559880454
2026-04-26T09:03:00.000 -959.572587458357 4120.804171018220 -5326.041363731800 -7.38805979231405 -1.97411356144827 -0.18993139025055
2026-04-26T09:07:00.000 -2676.587547682920 3503.754037252490 -5177.962745510500 -6.83346922320940 -3.13690418947085 1.41661752446387
2026-04-26T09:11:00.000 -4199.917679503570 2633.201859920570 -4654.172081455450 -5.78356668974822 -4.07381962237641 2.92204595925102
2026-04-26T09:15:00.000 -5418.938564631710 1571.891157959880 -3792.229862430730 -4.31268470101050 -4.71678969566244 4.21733560457844
2026-04-26T09:19:00.000 -6244.674356475070 396.529028483135 -2654.304171324470 -2.52596872770890 -5.01825390432792 5.20767717355755
2026-04-26T09:23:00.000 -6616.435001211950 -807.628877613846 -1322.889724540170 -0.55264859119807 -4.95509915808855 5.81963126632893
2026-04-26T09:27:00.000 -6506.530273569700 -1952.970441565900 105.085683631568 1.46322869633980 -4.53099319956223 6.00722453152390
2026-04-26T09:31:00.000 -5922.542842513760 -2956.002596014120 1525.374321081740 3.37363539399336 -3.77643819161563 5.75588219871335
2026-04-26T09:35:00.000 -4906.914168588750 -3743.593876026870 2834.174995370790 5.03805748230050 -2.74673355720119 5.08391781021502
2026-04-26T09:39:00.000 -3533.782600101720 -4258.441882454180 3935.908724674410 6.33457435476230 -1.51760182565248 4.04104463208034
2026-04-26T09:43:00.000 -1903.375183553180 -4463.275571274550 4750.303161284500 7.16902905507412 -0.17912816280401 2.70420741787633
2026-04-26T09:47:00.000 -134.511159231902 -4343.480169487740 5218.215937144320 7.48149413750995 1.17112546795367 1.17143021180734
2026-04-26T09:51:00.000 1644.140096540470 -3908.042391230660 5305.841867217150 7.25024549314193 2.43527068127305 -0.44551274100535
2026-04-26T09:55:00.000 3303.396901579280 -3188.770274436690 5007.026554404430 6.49263949231859 3.52208981915575 -2.02932972720643
2026-04-26T09:59:00.000 4722.806256144700 -2237.955461494070 4343.625181127000 5.26366769383492 4.35307390627700 -3.46523049640091
2026-04-26T10:03:00.000 5799.295918248360 -1124.640849232180 3363.943594518170 3.65237257464482 4.86800569929925 -4.64889922360412
2026-04-26T10:07:00.000 6454.663225063180 70.340636792984 2139.294492614810 1.77572428617644 5.02946658641054 -5.49412523550000
2026-04-26T10:11:00.000 6641.318213603130 1260.214551027450 758.853237447620 -0.22966477779158 4.82571887894269 -5.93921486950546
2026-04-26T10:15:00.000 6345.830197537900 2358.603826275060 -676.844544296261 -2.21752539608362 4.27181424945226 -5.95183374784287
2026-04-26T10:19:00.000 5589.926804356700 3285.874339522700 -2063.313871122430 -4.04303667392262 3.40852939919814 -5.53160245158827
2026-04-26T10:23:00.000 4428.813661868270 3974.965167540350 -3299.818179529990 -5.57378424651991 2.29917049461167 -4.70990174998173
2026-04-26T10:27:00.000 2946.990437132040 4376.227247644840 -4296.722530774110 -6.69954117726409 1.02457531533684 -3.54720882747457
2026-04-26T10:31:00.000 1251.961235339930 4460.902949247270 -4981.923642917910 -7.33988584747131 -0.32308724574435 -2.12818562702616
2026-04-26T10:35:00.000 -533.585302402025 4223.056527145110 -5305.917643194150 -7.44936938316727 -1.64692692457642 -0.55534350684712
2026-04-26T10:39:00.000 -2280.539910573210 3679.899835133380 -5245.223832122180 -7.02017542208667 -2.85202639944630 1.05821113693482
2026-04-26T10:43:00.000 -3862.492733534990 2870.547372853730 -4804.015114486320 -6.08248291822632 -3.85180759641603 2.59644415083125
2026-04-26T10:47:00.000 -5164.668028491330 1853.302680009490 -4013.883067379220 -4.70257445892833 -4.57385469204815 3.94819428679488
2026-04-26T10:51:00.000 -6092.151511844620 701.629403380233 -2931.744688097040 -2.97883410103059 -4.96503856541181 5.01481927868980
2026-04-26T10:55:00.000 -6576.899420865170 -501.008674202181 -1635.960142043800 -1.03556462787037 -4.99576419714742 5.71744419190915
2026-04-26T10:59:00.000 -6582.971318618590 -1667.162029715750 -220.788852957431 0.98561508308835 -4.66271341974538 6.00339577343954
2026-04-26T11:03:00.000 -6109.449392757520 -2711.841782016010 1210.500203709100 2.93638890247376 -3.98965119789996 5.85082657659664
2026-04-26T11:07:00.000 -5190.655996064080 -3558.872647860090 2553.312033405860 4.67331191527216 -3.02579178968140 5.27063485163436
2026-04-26T11:11:00.000 -3893.631818245840 -4146.583624565240 3709.548003264300 6.06895358120125 -1.84199542822509 4.30569380304711
2026-04-26T11:15:00.000 -2313.080021041650 -4432.361061305830 4594.910893109630 7.02168475037964 -0.52514163294492 3.02733155714255
2026-04-26T11:19:00.000 -564.241126796025 -4395.690863087760 5145.063085744350 7.46294950493383 0.82865229059540 1.52943304869267
2026-04-26T11:23:00.000 1225.622678281100 -4039.526638771010 5320.197863176780 7.36162022294171 2.12112572539505 -0.07871868975083
2026-04-26T11:27:00.000 2926.472326753400 -3389.958788450580 5107.807579108450 6.72577167493968 3.25887978377331 -1.68028247785069
2026-04-26T11:31:00.000 4414.843605003890 -2494.251762511700 4523.497378027030 5.60173601505242 4.15985413089792 -3.15919432739622
2026-04-26T11:35:00.000 5582.682740483880 -1417.443796196730 3609.835103992600 4.07090686930515 4.75886687746620 -4.40814688447577
2026-04-26T11:39:00.000 6345.156978373830 -237.704424612057 2433.319026191430 2.24429753107914 5.01236733148831 -5.33623069816915
2026-04-26T11:43:00.000 6646.882186586920 959.303527728477 1079.607751488350 0.25481130048573 4.90189961061771 -5.87572435914925
2026-04-26T11:47:00.000 6466.038017519960 2086.675015863970 -352.713374125449 -1.75248732421887 4.43565851808217 -5.98733942561074
2026-04-26T11:51:00.000 5815.996111444010 3062.642807478890 -1759.381248801390 -3.63127039243484 3.64799940905549 -5.66336239771164
2026-04-26T11:55:00.000 4744.278539885130 3816.577361245430 -3038.148742622010 -5.24509838768065 2.59675673720501 -4.92815596583485
2026-04-26T11:59:00.000 3328.935979915750 4294.101928991030 -4096.268496571510 -6.47754179593576 1.35864693798321 -3.83596189014941
2026-04-26T12:03:00.000 1672.716091229990 4460.936026669610 -4857.177604019950 -7.24040877164334 0.02335422785486 -2.46650307475386
2026-04-26T12:07:00.000 -104.456904520936 4305.225101288670 -5265.899289226410 -7.47948303798372 -1.31303153592277 -0.91882592766263
